station,metar,datetime_scraped
SPQU,SPQU 101700Z 27006KT 220V320 CAVOK 24/M01 Q1026 NOSIG RMK PP000=,2025-05-10 17:33:42.184007
SPQU,SPQU 120100Z 08006KT CAVOK 16/03 Q1029 RMK PP000=,2025-05-12 01:23:32.474476
SPJC,SPJC 120100Z 18006KT 9999 FEW005 BKN009 18/15 Q1013 BECMG SCT009 RMK PP000=,2025-05-12 01:23:32.474476
SPRU,SPRU 120100Z 14009KT 8000 FEW080 18/16 Q1012 RMK PP000=,2025-05-12 01:23:32.474476
SPZO,SPZO 120100Z 06006KT 020V150 9999 NSC 12/03 Q1035 NOSIG RMK BIRD HAZARD RWY 10/28 PP000=,2025-05-12 01:23:32.474476
SPQU,SPQU 120100Z 08006KT CAVOK 16/03 Q1029 RMK PP000=,2025-05-12 01:53:33.362448
SPJC,SPJC 120100Z 18006KT 9999 FEW005 BKN009 18/15 Q1013 BECMG SCT009 RMK PP000=,2025-05-12 01:53:33.362448
SPRU,SPRU 120100Z 14009KT 8000 FEW080 18/16 Q1012 RMK PP000=,2025-05-12 01:53:33.362448
SPZO,SPZO 120100Z 06006KT 020V150 9999 NSC 12/03 Q1035 NOSIG RMK BIRD HAZARD RWY 10/28 PP000=,2025-05-12 01:53:33.362448
SPZO,SPZO 120130Z VRB02KT 9999 NSC 11/03 Q1035 NOSIG RMK BIRD HAZARD RWY 10/28=,2025-05-12 01:53:33.362448
SPQU,SPQU 120200Z VRB02KT CAVOK 18/02 Q1029 RMK PP000=,2025-05-12 02:23:34.324009
SPJC,SPJC 120200Z 16009KT 9999 SCT010 SCT015 18/16 Q1014 NOSIG RMK PP000=,2025-05-12 02:23:34.324009
SPRU,SPRU 120200Z 14006KT 8000 NSC 18/16 Q1013 RMK PP000=,2025-05-12 02:23:34.324009
SPZO,SPZO 120200Z 10004KT 9999 NSC 10/04 Q1036 NOSIG RMK BIRD HAZARD RWY 10/28 PP000=,2025-05-12 02:23:34.324009
SPQU,SPQU 120200Z VRB02KT CAVOK 18/02 Q1029 RMK PP000=,2025-05-12 02:53:35.216292
SPJC,SPJC 120200Z 16009KT 9999 SCT010 SCT015 18/16 Q1014 NOSIG RMK PP000=,2025-05-12 02:53:35.216292
SPRU,SPRU 120200Z 14006KT 8000 NSC 18/16 Q1013 RMK PP000=,2025-05-12 02:53:35.216292
SPZO,SPZO 120200Z 10004KT 9999 NSC 10/04 Q1036 NOSIG RMK BIRD HAZARD RWY 10/28 PP000=,2025-05-12 02:53:35.216292
SPZO,SPZO 120230Z VRB02KT 9999 NSC 11/03 Q1036 NOSIG RMK BIRD HAZARD RWY 10/28=,2025-05-12 02:53:35.216292
SPQU,SPQU 120300Z 03005KT 020V090 9999 SCT120 17/M00 Q1029 RMK PP000=,2025-05-12 03:23:36.144659
SPJC,SPJC 120300Z 15008KT 9999 SCT010 18/15 Q1014 NOSIG RMK PP000=,2025-05-12 03:23:36.144659
SPRU,SPRU 120300Z 14005KT 6000 NSC 17/16 Q1013 RMK PP000=,2025-05-12 03:23:36.144659
SPZO,SPZO 120300Z 27004KT 9999 NSC 09/03 Q1036 NOSIG RMK BIRD HAZARD RWY 10/28 PP000=,2025-05-12 03:23:36.144659
SPQU,SPQU 120300Z 03005KT 020V090 9999 SCT120 17/M00 Q1029 RMK PP000=,2025-05-12 03:53:37.042258
SPJC,SPJC 120300Z 15008KT 9999 SCT010 18/15 Q1014 NOSIG RMK PP000=,2025-05-12 03:53:37.042258
SPRU,SPRU 120300Z 14005KT 6000 NSC 17/16 Q1013 RMK PP000=,2025-05-12 03:53:37.042258
SPZO,SPZO 120300Z 27004KT 9999 NSC 09/03 Q1036 NOSIG RMK BIRD HAZARD RWY 10/28 PP000=,2025-05-12 03:53:37.042258
SPZO,SPZO 120330Z 28005KT 9999 NSC 08/03 Q1036 NOSIG RMK BIRD HAZARD RWY 10/28=,2025-05-12 03:53:37.042258
SPQU,SPQU 120400Z 35002KT 9999 FEW120 14/M01 Q1029 RMK PP000=,2025-05-12 04:23:37.935554
SPJC,SPJC 120400Z 17006KT 8000 FEW010 18/15 Q1014 NOSIG RMK PP000=,2025-05-12 04:23:37.935554
SPRU,SPRU 120400Z 13005KT 5000 BR NSC 17/16 Q1014 RMK PP000=,2025-05-12 04:23:37.935554
SPZO,SPZO 120400Z VRB02KT 9999 SCT050 08/04 Q1037 NOSIG RMK BIRD HAZARD RWY 10/28 PP000=,2025-05-12 04:23:37.935554
SPQU,SPQU 120400Z 35002KT 9999 FEW120 14/M01 Q1029 RMK PP000=,2025-05-12 04:53:38.836002
SPJC,SPJC 120400Z 17006KT 8000 FEW010 18/15 Q1014 NOSIG RMK PP000=,2025-05-12 04:53:38.836002
SPRU,SPRU 120400Z 13005KT 5000 BR NSC 17/16 Q1014 RMK PP000=,2025-05-12 04:53:38.836002
SPZO,SPZO 120400Z VRB02KT 9999 SCT050 08/04 Q1037 NOSIG RMK BIRD HAZARD RWY 10/28 PP000=,2025-05-12 04:53:38.836002
SPZO,SPZO 120430Z VRB02KT 9999 SCT050 08/04 Q1037 NOSIG RMK BIRD HAZARD RWY 10/28=,2025-05-12 04:53:38.836002
SPQU,SPQU 120500Z VRB02KT CAVOK 14/M02 Q1028 RMK PP000=,2025-05-12 05:23:39.771482
SPJC,SPJC 120500Z 17006KT 9999 FEW030 18/16 Q1013 NOSIG RMK PP000=,2025-05-12 05:23:39.771482
SPRU,SPRU 120500Z 15004KT 5000 BR NSC 17/16 Q1013 RMK PP000=,2025-05-12 05:23:39.771482
SPZO,SPZO 120500Z VRB02KT 9999 SCT050 08/04 Q1036 NOSIG RMK BIRD HAZARD RWY 10/28 PP000=,2025-05-12 05:23:39.771482
SPQU,SPQU 120500Z VRB02KT CAVOK 14/M02 Q1028 RMK PP000=,2025-05-12 05:53:41.475658
SPJC,SPJC 120500Z 17006KT 9999 FEW030 18/16 Q1013 NOSIG RMK PP000=,2025-05-12 05:53:41.475658
SPRU,SPRU 120500Z 15004KT 5000 BR NSC 17/16 Q1013 RMK PP000=,2025-05-12 05:53:41.475658
SPZO,SPZO 120500Z VRB02KT 9999 SCT050 08/04 Q1036 NOSIG RMK BIRD HAZARD RWY 10/28 PP000=,2025-05-12 05:53:41.475658
SPZO,SPZO 120530Z 09004KT 9999 SCT050 08/04 Q1036 NOSIG RMK BIRD HAZARD RWY 10/28=,2025-05-12 05:53:41.475658
SPQU,SPQU 120600Z 02003KT CAVOK 15/M01 Q1028 RMK PP000=,2025-05-12 06:23:42.368651
SPJC,SPJC 120600Z 18008KT 9999 FEW015 SCT025 18/15 Q1013 NOSIG RMK PP000=,2025-05-12 06:23:42.368651
SPRU,SPRU 120600Z 12004KT 5000 BR NSC 17/16 Q1013 RMK PP000=,2025-05-12 06:23:42.368651
SPZO,SPZO 120600Z VRB02KT 9999 SCT100 07/04 Q1036 NOSIG RMK BIRD HAZARD RWY 10/28 PP000=,2025-05-12 06:23:42.368651
SPQU,SPQU 120600Z 02003KT CAVOK 15/M01 Q1028 RMK PP000=,2025-05-12 06:53:43.267504
SPJC,SPJC 120600Z 18008KT 9999 FEW015 SCT025 18/15 Q1013 NOSIG RMK PP000=,2025-05-12 06:53:43.267504
SPRU,SPRU 120600Z 12004KT 5000 BR NSC 17/16 Q1013 RMK PP000=,2025-05-12 06:53:43.267504
SPZO,SPZO 120600Z VRB02KT 9999 SCT100 07/04 Q1036 NOSIG RMK BIRD HAZARD RWY 10/28 PP000=,2025-05-12 06:53:43.267504
SPQU,SPQU 120700Z VRB02KT CAVOK 14/M01 Q1028 RMK PP000=,2025-05-12 07:23:44.180310
SPJC,SPJC 120700Z 18008KT 8000 SCT006 BKN015 17/15 Q1013 TEMPO OVC009 RMK PP000=,2025-05-12 07:23:44.180310
SPRU,SPRU 120700Z 12004KT 5000 BR NSC 17/16 Q1012 RMK PP000=,2025-05-12 07:23:44.180310
SPZO,SPZO 120700Z 09002KT 9999 SCT100 08/04 Q1036 NOSIG RMK BIRD HAZARD RWY 10/28 PP000=,2025-05-12 07:23:44.180310
SPQU,SPQU 120700Z VRB02KT CAVOK 14/M01 Q1028 RMK PP000=,2025-05-12 07:53:45.058924
SPJC,SPJC 120700Z 18008KT 8000 SCT006 BKN015 17/15 Q1013 TEMPO OVC009 RMK PP000=,2025-05-12 07:53:45.058924
SPRU,SPRU 120700Z 12004KT 5000 BR NSC 17/16 Q1012 RMK PP000=,2025-05-12 07:53:45.058924
SPZO,SPZO 120700Z 09002KT 9999 SCT100 08/04 Q1036 NOSIG RMK BIRD HAZARD RWY 10/28 PP000=,2025-05-12 07:53:45.058924
SPQU,SPQU 120800Z 02004KT CAVOK 14/M01 Q1027 RMK PP000=,2025-05-12 08:23:46.029210
SPJC,SPJC 120800Z 16006KT 8000 SCT006 BKN013 18/15 Q1012 NOSIG RMK PP000=,2025-05-12 08:23:46.029210
SPRU,SPRU 120800Z 12005KT 5000 BR NSC 17/16 Q1012 RMK PP000=,2025-05-12 08:23:46.029210
SPZO,SPZO 120800Z 11002KT 9999 SCT050 BKN100 08/04 Q1035 NOSIG RMK BIRD HAZARD RWY 10/28 PP000=,2025-05-12 08:23:46.029210
SPQU,SPQU 120800Z 02004KT CAVOK 14/M01 Q1027 RMK PP000=,2025-05-12 08:53:46.920522
SPJC,SPJC 120800Z 16006KT 8000 SCT006 BKN013 18/15 Q1012 NOSIG RMK PP000=,2025-05-12 08:53:46.920522
SPRU,SPRU 120800Z 12005KT 5000 BR NSC 17/16 Q1012 RMK PP000=,2025-05-12 08:53:46.920522
SPZO,SPZO 120800Z 11002KT 9999 SCT050 BKN100 08/04 Q1035 NOSIG RMK BIRD HAZARD RWY 10/28 PP000=,2025-05-12 08:53:46.920522
SPQU,SPQU 120900Z 36006KT CAVOK 15/M01 Q1027 RMK PP000=,2025-05-12 09:23:41.990107
SPJC,SPJC 120900Z 20005KT 8000 OVC010 18/15 Q1012 NOSIG RMK PP000=,2025-05-12 09:23:41.990107
SPRU,SPRU 120900Z 14007KT 5000 BR NSC 17/16 Q1012 RMK PP000=,2025-05-12 09:23:41.990107
SPZO,SPZO 120900Z 09002KT 9999 SCT050 BKN100 08/04 Q1035 NOSIG RMK BIRD HAZARD RWY 10/28 PP000=,2025-05-12 09:23:41.990107
SPQU,SPQU 120900Z 36006KT CAVOK 15/M01 Q1027 RMK PP000=,2025-05-12 09:53:42.898635
SPJC,SPJC 120900Z 20005KT 8000 OVC010 18/15 Q1012 NOSIG RMK PP000=,2025-05-12 09:53:42.898635
SPRU,SPRU 120900Z 14007KT 5000 BR NSC 17/16 Q1012 RMK PP000=,2025-05-12 09:53:42.898635
SPZO,SPZO 120900Z 09002KT 9999 SCT050 BKN100 08/04 Q1035 NOSIG RMK BIRD HAZARD RWY 10/28 PP000=,2025-05-12 09:53:42.898635
SPQU,SPQU 121000Z 03005KT CAVOK 14/M01 Q1027 RMK PP000=,2025-05-12 10:23:43.787482
SPJC,SPJC 121000Z 20004KT 9999 BKN010 18/15 Q1012 NOSIG RMK PP000=,2025-05-12 10:23:43.787482
SPRU,SPRU 121000Z 14010KT 6000 NSC 17/16 Q1012 RMK PP000=,2025-05-12 10:23:43.787482
SPZO,SPZO 121000Z 07004KT 9999 SCT050 BKN100 07/04 Q1035 NOSIG RMK BIRD HAZARD RWY 10/28 PP000=,2025-05-12 10:23:43.787482
SPQU,SPQU 121000Z 03005KT CAVOK 14/M01 Q1027 RMK PP000=,2025-05-12 10:53:44.713633
SPJC,SPJC 121000Z 20004KT 9999 BKN010 18/15 Q1012 NOSIG RMK PP000=,2025-05-12 10:53:44.713633
SPRU,SPRU 121000Z 14010KT 6000 NSC 17/16 Q1012 RMK PP000=,2025-05-12 10:53:44.713633
SPZO,SPZO 121000Z 07004KT 9999 SCT050 BKN100 07/04 Q1035 NOSIG RMK BIRD HAZARD RWY 10/28 PP000=,2025-05-12 10:53:44.713633
SPZO,SPZO 121030Z 08002KT 9999 SCT050 BKN100 07/04 Q1035 NOSIG RMK BIRD HAZARD RWY 10/28=,2025-05-12 10:53:44.713633
SPQU,SPQU 121100Z 06010KT 9999 FEW110 13/M00 Q1028 RMK PP000=,2025-05-12 11:23:45.631581
SPJC,SPJC 121100Z 24004KT 9999 OVC012 17/15 Q1013 TEMPO BKN007 RMK PP000=,2025-05-12 11:23:45.631581
SPRU,SPRU 121100Z 12006KT 5000 BR NSC 17/16 Q1012 RMK PP000=,2025-05-12 11:23:45.631581
SPZO,SPZO 121100Z VRB02KT 9999 SCT050 BKN100 08/04 Q1036 NOSIG RMK BIRD HAZARD RWY 10/28 PP000=,2025-05-12 11:23:45.631581
SPQU,SPQU 121100Z 06010KT 9999 FEW110 13/M00 Q1028 RMK PP000=,2025-05-12 11:53:46.524808
SPJC,SPJC 121100Z 24004KT 9999 OVC012 17/15 Q1013 TEMPO BKN007 RMK PP000=,2025-05-12 11:53:46.524808
SPRU,SPRU 121100Z 12006KT 5000 BR NSC 17/16 Q1012 RMK PP000=,2025-05-12 11:53:46.524808
SPZO,SPZO 121100Z VRB02KT 9999 SCT050 BKN100 08/04 Q1036 NOSIG RMK BIRD HAZARD RWY 10/28 PP000=,2025-05-12 11:53:46.524808
SPZO,SPZO 121130Z 09002KT 9999 SCT050 BKN100 07/04 Q1036 NOSIG RMK BIRD HAZARD RWY 10/28=,2025-05-12 11:53:46.524808
SPQU,SPQU 140300Z 02003KT 330V080 CAVOK 15/01 Q1027 NOSIG RMK PP000=,2025-05-14 03:20:44.126211
SPJC,SPJC 140300Z 17009KT 8000 BKN008 18/15 Q1012 NOSIG RMK PP000=,2025-05-14 03:20:44.126211
SPRU,SPRU 140300Z 15004KT 3000 BR NSC 18/16 Q1012 RMK PP000=,2025-05-14 03:20:44.126211
SPZO,SPZO 140300Z 00000KT 9999 NSC 08/M01 Q1033 NOSIG RMK BIRD HAZARD RWY 10/28 PP000=,2025-05-14 03:20:44.126211
SPQU,SPQU 140300Z 02003KT 330V080 CAVOK 15/01 Q1027 NOSIG RMK PP000=,2025-05-14 03:50:45.015404
SPJC,SPJC 140300Z 17009KT 8000 BKN008 18/15 Q1012 NOSIG RMK PP000=,2025-05-14 03:50:45.015404
SPRU,SPRU 140300Z 15004KT 3000 BR NSC 18/16 Q1012 RMK PP000=,2025-05-14 03:50:45.015404
SPZO,SPZO 140300Z 00000KT 9999 NSC 08/M01 Q1033 NOSIG RMK BIRD HAZARD RWY 10/28 PP000=,2025-05-14 03:50:45.015404
SPZO,SPZO 140330Z VRB02KT 9999 FEW080 09/M00 Q1033 NOSIG RMK BIRD HAZARD RWY 10/28=,2025-05-14 03:50:45.015404
SPQU,SPQU 140400Z VRB02KT CAVOK 14/00 Q1026 RMK PP000=,2025-05-14 04:20:45.895632
SPJC,SPJC 140400Z 16011KT 8000 OVC008 17/15 Q1012 NOSIG RMK PP000=,2025-05-14 04:20:45.895632
SPRU,SPRU 140400Z 15004KT 5000 BR NSC 18/16 Q1013 RMK PP000=,2025-05-14 04:20:45.895632
SPZO,SPZO 140400Z VRB01KT 9999 FEW080 08/M00 Q1033 NOSIG RMK BIRD HAZARD RWY 10/28 PP000=,2025-05-14 04:20:45.895632
SPQU,SPQU 140400Z VRB02KT CAVOK 14/00 Q1026 RMK PP000=,2025-05-14 04:50:46.842856
SPJC,SPJC 140400Z 16011KT 8000 OVC008 17/15 Q1012 NOSIG RMK PP000=,2025-05-14 04:50:46.842856
SPRU,SPRU 140400Z 15004KT 5000 BR NSC 18/16 Q1013 RMK PP000=,2025-05-14 04:50:46.842856
SPZO,SPZO 140400Z VRB01KT 9999 FEW080 08/M00 Q1033 NOSIG RMK BIRD HAZARD RWY 10/28 PP000=,2025-05-14 04:50:46.842856
SPZO,SPZO 140430Z 09002KT 9999 FEW080 08/M01 Q1033 NOSIG RMK BIRD HAZARD RWY 10/28=,2025-05-14 04:50:46.842856
SPQU,SPQU 140500Z 04004KT CAVOK 14/M01 Q1026 RMK PP000=,2025-05-14 05:56:59.181051
SPRU,SPRU 140500Z 14003KT 110V170 5000 BR NSC 18/16 Q1013 RMK PP000=,2025-05-14 05:56:59.181051
SPZO,SPZO 140500Z 07003KT 9999 FEW080 07/M00 Q1033 NOSIG RMK BIRD HAZARD RWY 10/28 PP000=,2025-05-14 05:56:59.181051
SPZO,SPZO 140530Z 06002KT 9999 FEW080 07/M00 Q1033 NOSIG RMK BIRD HAZARD RWY 10/28=,2025-05-14 05:56:59.181051
SPQU,SPQU 140500Z 04004KT CAVOK 14/M01 Q1026 RMK PP000=,2025-05-14 05:58:09.898862
SPRU,SPRU 140500Z 14003KT 110V170 5000 BR NSC 18/16 Q1013 RMK PP000=,2025-05-14 05:58:09.898862
SPZO,SPZO 140500Z 07003KT 9999 FEW080 07/M00 Q1033 NOSIG RMK BIRD HAZARD RWY 10/28 PP000=,2025-05-14 05:58:09.898862
SPZO,SPZO 140530Z 06002KT 9999 FEW080 07/M00 Q1033 NOSIG RMK BIRD HAZARD RWY 10/28=,2025-05-14 05:58:09.898862
SPQU,SPQU 140600Z 01004KT CAVOK 15/M00 Q1025 RMK PP000=,2025-05-14 06:28:10.796249
SPRU,SPRU 140600Z 12006KT 4000 BR NSC 18/16 Q1014 RMK PP000=,2025-05-14 06:28:10.796249
SPZO,SPZO 140600Z 09001KT 9999 NSC 06/M00 Q1033 NOSIG RMK PP000=,2025-05-14 06:28:10.796249
SPQU,SPQU 140600Z 01004KT CAVOK 15/M00 Q1025 RMK PP000=,2025-05-14 06:34:13.350574
SPRU,SPRU 140600Z 12006KT 4000 BR NSC 18/16 Q1014 RMK PP000=,2025-05-14 06:34:13.350574
SPZO,SPZO 140600Z 09001KT 9999 NSC 06/M00 Q1033 NOSIG RMK PP000=,2025-05-14 06:34:13.350574
SPQU,SPQU 140600Z 01004KT CAVOK 15/M00 Q1025 RMK PP000=,2025-05-14 06:37:07.092737
SPRU,SPRU 140600Z 12006KT 4000 BR NSC 18/16 Q1014 RMK PP000=,2025-05-14 06:37:07.092737
SPZO,SPZO 140600Z 09001KT 9999 NSC 06/M00 Q1033 NOSIG RMK PP000=,2025-05-14 06:37:07.092737
SPQU,SPQU 140700Z 03004KT CAVOK 13/M00 Q1024 RMK PP000=,2025-05-14 07:37:16.110813
SPRU,SPRU 140700Z 12004KT 4000 BR SCT012 17/16 Q1013 RMK PP000=,2025-05-14 07:37:16.110813
SPZO,SPZO 140700Z 30002KT 9999 NSC 05/00 Q1033 NOSIG RMK PP000=,2025-05-14 07:37:16.110813
SPQU,SPQU 140800Z 03004KT CAVOK 13/M00 Q1024 RMK PP000=,2025-05-14 08:37:24.987988
SPRU,SPRU 140800Z 11004KT 3000 BR NSC 17/16 Q1013 RMK PP000=,2025-05-14 08:37:24.987988
SPZO,SPZO 140800Z 10002KT 9999 NSC 05/00 Q1033 NOSIG RMK PP000=,2025-05-14 08:37:24.987988
SPQU,SPQU 140900Z 01005KT CAVOK 14/M01 Q1024 RMK PP000=,2025-05-14 09:37:33.844507
SPRU,SPRU 140900Z 12003KT 3000 BR NSC 17/16 Q1013 RMK PP000=,2025-05-14 09:37:33.844507
SPZO,SPZO 140900Z 11002KT 9999 FEW043 04/00 Q1033 NOSIG RMK PP000=,2025-05-14 09:37:33.844507
SPQU,SPQU 141000Z 04004KT 010V090 CAVOK 11/M01 Q1024 RMK PP000=,2025-05-14 10:37:42.666133
SPRU,SPRU 141000Z 14003KT 3000 BR NSC 18/16 Q1012 RMK PP000=,2025-05-14 10:37:42.666133
SPZO,SPZO 141000Z VRB01KT 9999 FEW043 03/M01 Q1033 NOSIG RMK PP000=,2025-05-14 10:37:42.666133
SPZO,SPZO 141030Z 00000KT 9999 FEW043 SCT080 03/00 Q1034 NOSIG RMK BIRD HAZARD RWY 10/28 PP000=,2025-05-14 10:37:42.666133
SPQU,SPQU 141100Z 36005KT CAVOK 13/M01 Q1025 RMK PP000=,2025-05-14 11:37:51.462653
SPRU,SPRU 141100Z 17003KT 1600 BR NSC 17/16 Q1013 RMK PP000=,2025-05-14 11:37:51.462653
SPZO,SPZO 141100Z VRB01KT 9999 FEW043 SCT080 04/00 Q1034 NOSIG RMK BIRD HAZARD RWY 10/28 PP000=,2025-05-14 11:37:51.462653
SPZO,SPZO 141130Z 11003KT 070V130 9999 FEW043 SCT080 04/M00 Q1034 NOSIG RMK BIRD HAZARD RWY 10/28=,2025-05-14 11:37:51.462653
SPQU,SPQU 141200Z 05006KT CAVOK 15/M00 Q1025 NOSIG RMK TN 10.3 PP000=,2025-05-14 12:38:00.355614
SPRU,SPRU 141200Z 15003KT 2000 BR NSC 17/16 Q1013 RMK TN17.4 PP000=,2025-05-14 12:38:00.355614
SPZO,SPZO 141200Z 08002KT 9999 FEW043 SCT080 05/01 Q1035 NOSIG RMK BIRD HAZARD RWY 10/28 TN2.6 PP000=,2025-05-14 12:38:00.355614
SPZO,SPZO 141230Z VRB02KT 9999 FEW050 08/00 Q1035 NOSIG RMK BIRD HAZARD RWY 10/28=,2025-05-14 12:38:00.355614
SPQU,SPQU 141300Z VRB02KT CAVOK 19/M00 Q1026 NOSIG RMK PP000=,2025-05-14 13:38:09.236830
SPRU,SPRU 141300Z 15006KT 4000 BR BKN040 18/16 Q1014 RMK PP000=,2025-05-14 13:38:09.236830
SPZO,SPZO 141300Z VRB01KT 9999 NSC 10/01 Q1035 NOSIG RMK BIRD HAZARD RWY 10/28 PP000=,2025-05-14 13:38:09.236830
SPZO,SPZO 141330Z VRB02KT 9999 NSC 12/01 Q1035 NOSIG RMK BIRD HAZARD RWY 10/28=,2025-05-14 13:38:09.236830
SPQU,SPQU 141900Z 24009KT 210V300 CAVOK 21/01 Q1025 NOSIG RMK PP000=,2025-05-14 19:57:15.284903
SPRU,SPRU 141900Z 16010KT 8000 FEW060 20/16 Q1012 RMK PP000=,2025-05-14 19:57:15.284903
SPRU,SPRU 142000Z 16009KT 8000 NSC 21/16 Q1011 RMK PP000=,2025-05-14 19:57:15.284903
SPZO,SPZO 141900Z 30007KT 250V350 9999 FEW060 22/M01 Q1029 NOSIG RMK BIRD HAZARD RWY 10/28 PP000=,2025-05-14 19:57:15.284903
SPZO,SPZO 141930Z 29005KT 200V340 9999 FEW060 22/M02 Q1029 NOSIG RMK BIRD HAZARD RWY 10/28=,2025-05-14 19:57:15.284903
SPQU,SPQU 142000Z 26009KT 200V290 CAVOK 20/01 Q1025 NOSIG RMK PP000=,2025-05-14 20:57:25.059018
SPRU,SPRU 142000Z 16009KT 8000 NSC 21/16 Q1011 RMK PP000=,2025-05-14 20:57:25.059018
SPRU,SPRU 142100Z 16010KT 8000 NSC 20/16 Q1010 RMK PP000=,2025-05-14 20:57:25.059018
SPZO,SPZO 142000Z 03003KT 280V090 9999 FEW060 21/M02 Q1028 NOSIG RMK BIRD HAZARD RWY 10/28 PP000=,2025-05-14 20:57:25.059018
SPZO,SPZO 142030Z VRB02KT 9999 FEW060 21/M01 Q1028 NOSIG RMK BIRD HAZARD RWY 10/28=,2025-05-14 20:57:25.059018
SPQU,SPQU 142100Z 25007KT 210V290 CAVOK 19/04 Q1025 NOSIG RMK PP000=,2025-05-14 21:57:33.881736
SPRU,SPRU 142100Z 16010KT 8000 NSC 20/16 Q1010 RMK PP000=,2025-05-14 21:57:33.881736
SPRU,SPRU 142200Z 16009KT 7000 NSC 19/16 Q1011 RMK TX20.3 PP000=,2025-05-14 21:57:33.881736
SPZO,SPZO 142100Z VRB03KT 9999 FEW060 22/M00 Q1028 NOSIG RMK BIRD HAZARD RWY 10/28 PP000=,2025-05-14 21:57:33.881736
SPZO,SPZO 142130Z 04005KT 320V100 9999 FEW060 20/02 Q1028 NOSIG RMK BIRD HAZARD RWY 10/28=,2025-05-14 21:57:33.881736
SPQU,SPQU 142200Z 28006KT CAVOK 16/06 Q1026 NOSIG RMK TX 22.6 PP000=,2025-05-14 22:57:42.741076
SPRU,SPRU 142200Z 16009KT 7000 NSC 19/16 Q1011 RMK TX20.3 PP000=,2025-05-14 22:57:42.741076
SPRU,SPRU 142300Z 15009KT 6000 FEW150 19/16 Q1011 RMK PP000=,2025-05-14 22:57:42.741076
SPZO,SPZO 142200Z 35007KT 330V030 9999 FEW060 18/03 Q1028 NOSIG RMK BIRD HAZARD RWY 10/28 TX22.6 PP000=,2025-05-14 22:57:42.741076
SPZO,SPZO 142230Z 07004KT 360V140 9999 NSC 17/03 Q1029 NOSIG RMK BIRD HAZARD RWY 10/28=,2025-05-14 22:57:42.741076
SPQU,SPQU 142300Z 27006KT CAVOK 14/06 Q1027 NOSIG RMK PP000=,2025-05-14 23:57:51.802318
SPRU,SPRU 142300Z 15009KT 6000 FEW150 19/16 Q1011 RMK PP000=,2025-05-14 23:57:51.802318
SPRU,SPRU 150000Z 14007KT 4000 BR FEW150 18/17 Q1011 RMK PP000=,2025-05-14 23:57:51.802318
SPZO,SPZO 142300Z 11006KT 060V140 9999 NSC 15/03 Q1029 NOSIG RMK BIRD HAZARD RWY 10/28 PP000=,2025-05-14 23:57:51.802318
SPZO,SPZO 142330Z 06005KT 030V130 9999 NSC 15/03 Q1030 NOSIG RMK BIRD HAZARD RWY 10/28=,2025-05-14 23:57:51.802318
SPQU,SPQU 150000Z 00000KT CAVOK 13/06 Q1027 NOSIG RMK PP000=,2025-05-15 00:58:00.861792
SPRU,SPRU 150000Z 14007KT 4000 BR FEW150 18/17 Q1011 RMK PP000=,2025-05-15 00:58:00.861792
SPZO,SPZO 150000Z 07004KT 010V120 9999 NSC 13/04 Q1030 NOSIG RMK BIRD HAZARD RWY 10/28 PP000=,2025-05-15 00:58:00.861792
SPZO,SPZO 150030Z 09003KT 050V120 9999 NSC 12/04 Q1031 NOSIG RMK BIRD HAZARD RWY 10/28=,2025-05-15 00:58:00.861792
SPQU,SPQU 150100Z 09004KT CAVOK 12/06 Q1027 NOSIG RMK PP000=,2025-05-15 01:58:09.829939
SPQU,SPQU 150200Z 09005KT CAVOK 12/05 Q1027 NOSIG RMK PP000=,2025-05-15 01:58:09.829939
SPRU,SPRU 150100Z 14007KT 4300 BR NSC 19/16 Q1012 RMK PP000=,2025-05-15 01:58:09.829939
SPRU,SPRU 150200Z 16007KT 4100 BR NSC 18/16 Q1012 RMK PP000=,2025-05-15 01:58:09.829939
SPZO,SPZO 150100Z VRB02KT 9999 NSC 11/04 Q1031 NOSIG RMK BIRD HAZARD RWY 10/28 PP000=,2025-05-15 01:58:09.829939
SPZO,SPZO 150130Z VRB01KT 9999 NSC 11/04 Q1032 NOSIG RMK BIRD HAZARD RWY 10/28=,2025-05-15 01:58:09.829939
SPZO,SPZO 150200Z VRB01KT 9999 NSC 09/04 Q1032 NOSIG RMK BIRD HAZARD RWY 10/28 PP000=,2025-05-15 01:58:09.829939
SPQU,SPQU 150100Z 09004KT CAVOK 12/06 Q1027 NOSIG RMK PP000=,2025-05-15 02:01:04.711504
SPQU,SPQU 150200Z 09005KT CAVOK 12/05 Q1027 NOSIG RMK PP000=,2025-05-15 02:01:04.711504
SPRU,SPRU 150100Z 14007KT 4300 BR NSC 19/16 Q1012 RMK PP000=,2025-05-15 02:01:04.711504
SPRU,SPRU 150200Z 16007KT 4100 BR NSC 18/16 Q1012 RMK PP000=,2025-05-15 02:01:04.711504
SPZO,SPZO 150100Z VRB02KT 9999 NSC 11/04 Q1031 NOSIG RMK BIRD HAZARD RWY 10/28 PP000=,2025-05-15 02:01:04.711504
SPZO,SPZO 150130Z VRB01KT 9999 NSC 11/04 Q1032 NOSIG RMK BIRD HAZARD RWY 10/28=,2025-05-15 02:01:04.711504
SPZO,SPZO 150200Z VRB01KT 9999 NSC 09/04 Q1032 NOSIG RMK BIRD HAZARD RWY 10/28 PP000=,2025-05-15 02:01:04.711504
SPQU,SPQU 150200Z 09005KT CAVOK 12/05 Q1027 NOSIG RMK PP000=,2025-05-15 03:01:14.137762
SPQU,SPQU 150300Z 01003KT CAVOK 13/01 Q1027 NOSIG RMK PP000=,2025-05-15 03:01:14.137762
SPRU,SPRU 150200Z 16007KT 4100 BR NSC 18/16 Q1012 RMK PP000=,2025-05-15 03:01:14.137762
SPRU,SPRU 150300Z 15005KT 120V180 3800 BR NSC 18/17 Q1013 RMK PP000=,2025-05-15 03:01:14.137762
SPZO,SPZO 150200Z VRB01KT 9999 NSC 09/04 Q1032 NOSIG RMK BIRD HAZARD RWY 10/28 PP000=,2025-05-15 03:01:14.137762
SPZO,SPZO 150230Z 29005KT 9999 NSC 09/04 Q1033 NOSIG RMK BIRD HAZARD RWY 10/28=,2025-05-15 03:01:14.137762
SPZO,SPZO 150300Z 25003KT 9999 NSC 10/04 Q1033 NOSIG RMK BIRD HAZARD RWY 10/28 PP000=,2025-05-15 03:01:14.137762
SPQU,SPQU 150300Z 01003KT CAVOK 13/01 Q1027 NOSIG RMK PP000=,2025-05-15 04:01:24.125606
SPQU,SPQU 150400Z 36003KT 320V030 CAVOK 12/00 Q1027 RMK PP000=,2025-05-15 04:01:24.125606
SPRU,SPRU 150300Z 15005KT 120V180 3800 BR NSC 18/17 Q1013 RMK PP000=,2025-05-15 04:01:24.125606
SPRU,SPRU 150400Z 14006KT 4000 BR NSC 18/16 Q1013 RMK PP000=,2025-05-15 04:01:24.125606
SPZO,SPZO 150300Z 25003KT 9999 NSC 10/04 Q1033 NOSIG RMK BIRD HAZARD RWY 10/28 PP000=,2025-05-15 04:01:24.125606
SPZO,SPZO 150330Z 28002KT 9999 NSC 07/03 Q1033 NOSIG RMK BIRD HAZARD RWY 10/28=,2025-05-15 04:01:24.125606
SPZO,SPZO 150400Z VRB02KT 9999 NSC 08/03 Q1033 NOSIG RMK BIRD HAZARD RWY 10/28 PP000=,2025-05-15 04:01:24.125606
SPQU,SPQU 150400Z 36003KT 320V030 CAVOK 12/00 Q1027 RMK PP000=,2025-05-15 05:01:34.158624
SPQU,SPQU 150500Z VRB02KT CAVOK 12/01 Q1027 RMK PP000=,2025-05-15 05:01:34.158624
SPRU,SPRU 150400Z 14006KT 4000 BR NSC 18/16 Q1013 RMK PP000=,2025-05-15 05:01:34.158624
SPRU,SPRU 150500Z 15007KT 4100 BR NSC 18/16 Q1014 RMK PP000=,2025-05-15 05:01:34.158624
SPZO,SPZO 150400Z VRB02KT 9999 NSC 08/03 Q1033 NOSIG RMK BIRD HAZARD RWY 10/28 PP000=,2025-05-15 05:01:34.158624
SPZO,SPZO 150430Z 28002KT 9999 NSC 06/03 Q1033 NOSIG RMK BIRD HAZARD RWY 10/28=,2025-05-15 05:01:34.158624
SPZO,SPZO 150500Z 09003KT 9999 NSC 07/04 Q1033 NOSIG RMK BIRD HAZARD RWY 10/28 PP000=,2025-05-15 05:01:34.158624
SPQU,SPQU 150500Z VRB02KT CAVOK 12/01 Q1027 RMK PP000=,2025-05-15 06:01:43.211709
SPQU,SPQU 150600Z VRB02KT CAVOK 12/M00 Q1026 RMK PP000=,2025-05-15 06:01:43.211709
SPRU,SPRU 150500Z 15007KT 4100 BR NSC 18/16 Q1014 RMK PP000=,2025-05-15 06:01:43.211709
SPRU,SPRU 150600Z 15006KT 3500 BR NSC 18/16 Q1013 RMK PP000=,2025-05-15 06:01:43.211709
SPZO,SPZO 150500Z 09003KT 9999 NSC 07/04 Q1033 NOSIG RMK BIRD HAZARD RWY 10/28 PP000=,2025-05-15 06:01:43.211709
SPZO,SPZO 150530Z 00000KT 9999 NSC 06/03 Q1033 NOSIG RMK BIRD HAZARD RWY 10/28=,2025-05-15 06:01:43.211709
SPZO,SPZO 150600Z VRB02KT 9999 NSC 06/03 Q1033 NOSIG RMK BIRD HAZARD RWY 10/28 PP000=,2025-05-15 06:01:43.211709
SPQU,SPQU 150600Z VRB02KT CAVOK 12/M00 Q1026 RMK PP000=,2025-05-15 07:01:52.374764
SPQU,SPQU 150700Z 29002KT CAVOK 12/02 Q1026 RMK PP000=,2025-05-15 07:01:52.374764
SPRU,SPRU 150600Z 15006KT 3500 BR NSC 18/16 Q1013 RMK PP000=,2025-05-15 07:01:52.374764
SPRU,SPRU 150700Z 14005KT 3500 BR NSC 18/16 Q1013 RMK PP000=,2025-05-15 07:01:52.374764
SPZO,SPZO 150600Z VRB02KT 9999 NSC 06/03 Q1033 NOSIG RMK BIRD HAZARD RWY 10/28 PP000=,2025-05-15 07:01:52.374764
SPZO,SPZO 150700Z 28002KT 9999 NSC 05/03 Q1033 NOSIG RMK PP000=,2025-05-15 07:01:52.374764
SPQU,SPQU 150700Z 29002KT CAVOK 12/02 Q1026 RMK PP000=,2025-05-15 08:02:03.297545
SPQU,SPQU 150800Z 34004KT CAVOK 10/01 Q1026 RMK PP000=,2025-05-15 08:02:03.297545
SPRU,SPRU 150700Z 14005KT 3500 BR NSC 18/16 Q1013 RMK PP000=,2025-05-15 08:02:03.297545
SPRU,SPRU 150800Z 14005KT 3100 BR NSC 18/16 Q1012 RMK PP000=,2025-05-15 08:02:03.297545
SPZO,SPZO 150700Z 28002KT 9999 NSC 05/03 Q1033 NOSIG RMK PP000=,2025-05-15 08:02:03.297545
SPZO,SPZO 150800Z 10001KT 9999 NSC 05/03 Q1032 NOSIG RMK PP000=,2025-05-15 08:02:03.297545
SPQU,SPQU 150800Z 34004KT CAVOK 10/01 Q1026 RMK PP000=,2025-05-15 09:02:20.323253
SPQU,SPQU 150900Z 04003KT 350V090 CAVOK 09/M00 Q1026 RMK PP000=,2025-05-15 09:02:20.323253
SPRU,SPRU 150800Z 14005KT 3100 BR NSC 18/16 Q1012 RMK PP000=,2025-05-15 09:02:20.323253
SPRU,SPRU 150900Z 17003KT 1700 BR NSC 17/16 Q1012 RMK PP000=,2025-05-15 09:02:20.323253
SPZO,SPZO 150800Z 10001KT 9999 NSC 05/03 Q1032 NOSIG RMK PP000=,2025-05-15 09:02:20.323253
SPZO,SPZO 150900Z 00000KT 9999 NSC 04/03 Q1033 NOSIG RMK PP000=,2025-05-15 09:02:20.323253
SPQU,SPQU 150900Z 04003KT 350V090 CAVOK 09/M00 Q1026 RMK PP000=,2025-05-15 10:02:29.471839
SPQU,SPQU 151000Z 36004KT CAVOK 10/00 Q1025 RMK PP000=,2025-05-15 10:02:29.471839
SPRU,SPRU 150900Z 17003KT 1700 BR NSC 17/16 Q1012 RMK PP000=,2025-05-15 10:02:29.471839
SPRU,SPRU 151000Z 16004KT 1800 BR NSC 17/16 Q1012 RMK PP000=,2025-05-15 10:02:29.471839
SPZO,SPZO 150900Z 00000KT 9999 NSC 04/03 Q1033 NOSIG RMK PP000=,2025-05-15 10:02:29.471839
SPZO,SPZO 151000Z 00000KT 9999 NSC 04/02 Q1033 NOSIG RMK PP000=,2025-05-15 10:02:29.471839
SPQU,SPQU 151100Z 35006KT CAVOK 11/M01 Q1025 RMK PP000=,2025-05-15 11:02:41.027500
SPRU,SPRU 151100Z 12002KT 1600 BR SCT002 17/16 Q1012 RMK PP000=,2025-05-15 11:02:41.027500
SPZO,SPZO 151100Z 07003KT 9999 NSC 03/01 Q1034 NOSIG RMK BIRD HAZARD RWY 10/28 PP000=,2025-05-15 11:02:41.027500
SPQU,SPQU 151200Z 01003KT 320V110 CAVOK 13/M01 Q1026 NOSIG RMK TN7.7 PP000=,2025-05-15 12:02:50.479908
SPRU,SPRU 151200Z 16004KT 3000 BR NSC 17/16 Q1012 RMK TN17.2 PP000=,2025-05-15 12:02:50.479908
SPZO,SPZO 151200Z VRB01KT 9999 FEW040 BKN080 05/03 Q1034 NOSIG RMK BIRD HAZARD RWY 10/28 TN2.5 PP000=,2025-05-15 12:02:50.479908
SPQU,SPQU 151300Z 30003KT 260V330 CAVOK 17/00 Q1026 NOSIG RMK PP000=,2025-05-15 13:02:59.440740
SPRU,SPRU 151300Z 12004KT 100V160 3000 BR NSC 18/17 Q1013 RMK PP000=,2025-05-15 13:02:59.440740
SPZO,SPZO 151300Z VRB01KT 9999 FEW030 BKN040 OVC070 08/04 Q1035 BECMG FEW040 SCT080 RMK BIRD HAZARD RWY 10/28 PP000=,2025-05-15 13:02:59.440740
SPQU,SPQU 151400Z 23005KT 200V270 CAVOK 18/01 Q1027 NOSIG RMK PP000=,2025-05-15 14:03:09.706878
SPRU,SPRU 151400Z 16004KT 110V190 3000 BR NSC 19/17 Q1013 RMK PP000=,2025-05-15 14:03:09.706878
SPZO,SPZO 151400Z VRB02KT 9999 FEW030 BKN040 OVC070 10/04 Q1035 NOSIG RMK BIRD HAZARD RWY 10/28 PP000=,2025-05-15 14:03:09.706878
SPQU,SPQU 151500Z 27007KT 230V290 CAVOK 19/M01 Q1027 NOSIG RMK PP000=,2025-05-15 15:03:18.685390
SPRU,SPRU 151500Z 19007KT 7000 NSC 19/17 Q1013 RMK PP000=,2025-05-15 15:03:18.685390
SPZO,SPZO 151500Z VRB03KT 9999 SCT040 BKN080 14/04 Q1035 NOSIG RMK BIRD HAZARD RWY 10/28 PP000=,2025-05-15 15:03:18.685390
SPQU,SPQU 151600Z 25008KT 210V300 CAVOK 19/01 Q1026 NOSIG RMK PP000=,2025-05-15 16:03:27.610968
SPRU,SPRU 151600Z 19007KT 9000 NSC 20/17 Q1013 RMK BCFG N PP000=,2025-05-15 16:03:27.610968
SPZO,SPZO 151600Z VRB04KT 9999 FEW043 16/04 Q1034 NOSIG RMK BIRD HAZARD RWY 10/28 PP000=,2025-05-15 16:03:27.610968
SPQU,SPQU 151700Z 26009KT 220V300 CAVOK 18/03 Q1026 NOSIG RMK PP000=,2025-05-15 17:03:37.411342
SPRU,SPRU 151700Z 19008KT 9000 NSC 20/17 Q1013 RMK HORIZONTE BRUMOSO PP000=,2025-05-15 17:03:37.411342
SPZO,SPZO 151700Z 03005KT 330V080 9999 NSC 17/03 Q1032 NOSIG RMK BIRD HAZARD RWY 10/28 PP000=,2025-05-15 17:03:37.411342
SPQU,SPQU 151800Z 24007KT 210V280 CAVOK 18/04 Q1025 NOSIG RMK PP000=,2025-05-15 18:03:48.008061
SPRU,SPRU 151800Z 19009KT 9999 FEW015 20/17 Q1012 RMK PP000=,2025-05-15 18:03:48.008061
SPZO,SPZO 151800Z VRB03KT 9999 NSC 20/M01 Q1030 NOSIG RMK BIRD HAZARD RWY 10/28 PP000=,2025-05-15 18:03:48.008061
SPQU,SPQU 151900Z 27009KT 220V300 CAVOK 18/04 Q1025 NOSIG RMK PP000=,2025-05-15 19:03:56.943371
SPRU,SPRU 151900Z 17007KT 130V200 9999 FEW015 21/17 Q1011 RMK PP000=,2025-05-15 19:03:56.943371
SPZO,SPZO 151900Z VRB06KT 9999 NSC 21/M02 Q1029 NOSIG RMK BIRD HAZARD RWY 10/28 PP000=,2025-05-15 19:03:56.943371
SPQU,SPQU 152000Z 24007KT 170V330 CAVOK 18/05 Q1025 NOSIG RMK PP000=,2025-05-15 20:04:06.134466
SPRU,SPRU 152000Z 17008KT 9000 NSC 20/17 Q1011 RMK PP000=,2025-05-15 20:04:06.134466
SPZO,SPZO 152000Z 36006KT 310V040 9999 NSC 21/M10 Q1028 NOSIG RMK BIRD HAZARD RWY 10/28 PP000=,2025-05-15 20:04:06.134466
SPQU,SPQU 152100Z 26008KT 220V290 CAVOK 16/05 Q1025 NOSIG RMK PP000=,2025-05-15 21:04:15.301557
SPRU,SPRU 152100Z 17008KT CAVOK 20/17 Q1010 RMK PP000=,2025-05-15 21:04:15.301557
SPZO,SPZO 152100Z VRB08KT 9999 NSC 20/M11 Q1028 NOSIG RMK BIRD HAZARD RWY 10/28 PP000=,2025-05-15 21:04:15.301557
SPQU,SPQU 152200Z 26008KT 220V290 CAVOK 15/06 Q1025 NOSIG RMK TX20.1 PP000=,2025-05-15 22:04:24.454434
SPRU,SPRU 152200Z 15009KT 9000 NSC 20/17 Q1010 RMK TX20.1 PP000=,2025-05-15 22:04:24.454434
SPZO,SPZO 152200Z 04007KT 360V080 9999 NSC 19/M08 Q1028 NOSIG RMK BIRD HAZARD RWY 10/28 TX21.4 PP000=,2025-05-15 22:04:24.454434
SPQU,SPQU 152300Z 27004KT CAVOK 13/07 Q1026 NOSIG RMK PP000=,2025-05-15 23:04:33.386968
SPRU,SPRU 152300Z 16009KT 9999 SCT150 20/17 Q1010 RMK PP000=,2025-05-15 23:04:33.386968
SPZO,SPZO 152300Z 27008KT 240V300 9999 NSC 15/M05 Q1028 NOSIG RMK BIRD HAZARD RWY 10/28 PP000=,2025-05-15 23:04:33.386968
SPQU,SPQU 160000Z VRB02KT CAVOK 12/08 Q1026 RMK PP000=,2025-05-16 00:04:42.662473
SPRU,SPRU 160000Z 15006KT 9000 SCT150 19/17 Q1012 RMK PP000=,2025-05-16 00:04:42.662473
SPZO,SPZO 160000Z 24003KT 190V310 9999 NSC 14/M05 Q1030 NOSIG RMK BIRD HAZARD RWY 10/28 PP000=,2025-05-16 00:04:42.662473
SPQU,SPQU 160100Z VRB02KT CAVOK 12/07 Q1027 RMK PP000=,2025-05-16 01:04:51.774236
SPRU,SPRU 160100Z 14007KT 6000 BKN100 19/17 Q1012 RMK PP000=,2025-05-16 01:04:51.774236
SPZO,SPZO 160100Z VRB02KT 9999 NSC 10/M03 Q1031 NOSIG RMK BIRD HAZARD RWY 10/28 PP000=,2025-05-16 01:04:51.774236
SPQU,SPQU 160200Z VRB02KT CAVOK 11/06 Q1027 RMK PP000=,2025-05-16 02:05:01.175856
SPRU,SPRU 160200Z 13008KT 5000 BR BKN100 19/17 Q1013 RMK PP000=,2025-05-16 02:05:01.175856
SPZO,SPZO 160200Z 08002KT 9999 NSC 08/M02 Q1032 NOSIG RMK BIRD HAZARD RWY 10/28 PP000=,2025-05-16 02:05:01.175856
SPQU,SPQU 160300Z 04005KT CAVOK 11/05 Q1028 RMK PP000=,2025-05-16 03:05:10.314886
SPRU,SPRU 160300Z 13009KT 5000 BR BKN150 19/17 Q1014 RMK PP000=,2025-05-16 03:05:10.314886
SPZO,SPZO 160300Z 27003KT 9999 NSC 07/02 Q1032 NOSIG RMK BIRD HAZARD RWY 10/28 PP000=,2025-05-16 03:05:10.314886
SPQU,SPQU 160400Z 02003KT CAVOK 11/06 Q1027 RMK PP000=,2025-05-16 04:05:19.542425
SPRU,SPRU 160400Z 13008KT 5000 BR BKN120 19/17 Q1014 RMK PP000=,2025-05-16 04:05:19.542425
SPZO,SPZO 160400Z VRB01KT 9999 NSC 07/02 Q1033 NOSIG RMK BIRD HAZARD RWY 10/28 PP000=,2025-05-16 04:05:19.542425
SPQU,SPQU 161400Z 18003KT 140V240 CAVOK 16/03 Q1028 NOSIG RMK PP000=,2025-05-16 14:38:44.961254
SPRU,SPRU 161400Z 17008KT 8000 NSC 19/17 Q1015 RMK PP000=,2025-05-16 14:38:44.961254
SPZO,SPZO 161400Z VRB03KT 9999 FEW040 12/03 Q1035 NOSIG RMK BIRD HAZARD RWY 10/28 PP000=,2025-05-16 14:38:44.961254
SPZO,SPZO 161430Z VRB03KT 9999 NSC 13/04 Q1034 NOSIG RMK BIRD HAZARD RWY 10/28=,2025-05-16 14:38:44.961254
SPQU,SPQU 161500Z 25004KT 190V330 CAVOK 16/04 Q1028 NOSIG RMK PP000=,2025-05-16 15:38:54.170438
SPRU,SPRU 161500Z 16009KT 7000 NSC 19/17 Q1014 RMK PP000=,2025-05-16 15:38:54.170438
SPZO,SPZO 161500Z VRB03KT 9999 NSC 15/04 Q1034 NOSIG RMK BIRD HAZARD RWY 10/28 PP000=,2025-05-16 15:38:54.170438
SPZO,SPZO 161530Z 01003KT 290V090 9999 NSC 16/03 Q1033 NOSIG RMK BIRD HAZARD RWY 10/28=,2025-05-16 15:38:54.170438
SPQU,SPQU 161600Z 24007KT 200V290 CAVOK 17/01 Q1029 NOSIG RMK PP000=,2025-05-16 16:39:03.429944
SPRU,SPRU 161600Z 18009KT 7000 NSC 20/17 Q1014 RMK PP000=,2025-05-16 16:39:03.429944
SPZO,SPZO 161600Z VRB03KT 9999 NSC 17/02 Q1033 NOSIG RMK BIRD HAZARD RWY 10/28 PP000=,2025-05-16 16:39:03.429944
SPZO,SPZO 161630Z VRB04KT 9999 NSC 18/M00 Q1032 NOSIG RMK BIRD HAZARD RWY 10/28=,2025-05-16 16:39:03.429944
SPQU,SPQU 161700Z 25008KT 200V290 CAVOK 17/04 Q1029 NOSIG RMK PP000=,2025-05-16 17:39:12.458285
SPRU,SPRU 161700Z 16010KT 7000 SCT003 20/17 Q1014 RMK HZ PP000=,2025-05-16 17:39:12.458285
SPZO,SPZO 161700Z 32004KT 240V040 9999 NSC 19/M03 Q1031 NOSIG RMK BIRD HAZARD RWY 10/28 PP000=,2025-05-16 17:39:12.458285
SPZO,SPZO 161730Z VRB05KT 9999 NSC 19/00 Q1031 NOSIG RMK BIRD HAZARD RWY 10/28=,2025-05-16 17:39:12.458285
SPQU,SPQU 161800Z 25008KT 190V300 CAVOK 18/03 Q1028 NOSIG RMK PP000=,2025-05-16 18:17:02.381113
SPRU,SPRU 161800Z 17010KT 7000 SCT003 20/17 Q1014 RMK PP000=,2025-05-16 18:17:02.381113
SPZO,SPZO 161800Z VRB06KT 9999 NSC 20/M01 Q1030 NOSIG RMK BIRD HAZARD RWY 10/28 PP000=,2025-05-16 18:17:02.381113
SPQU,SPQU 161900Z 24007KT 190V290 CAVOK 18/03 Q1028 NOSIG RMK PP000=,2025-05-16 19:17:12.015654
SPRU,SPRU 161900Z 17009KT 4500 BR BKN004 19/17 Q1013 RMK PP000=,2025-05-16 19:17:12.015654
SPZO,SPZO 161900Z 29006KT 250V320 9999 FEW060 21/02 Q1028 NOSIG RMK BIRD HAZARD RWY 10/28 PP000=,2025-05-16 19:17:12.015654
SPQU,SPQU 161900Z 24007KT 190V290 CAVOK 18/03 Q1028 NOSIG RMK PP000=,2025-05-16 19:43:01.303609
SPRU,SPRU 161900Z 17009KT 4500 BR BKN004 19/17 Q1013 RMK PP000=,2025-05-16 19:43:01.303609
SPZO,SPZO 161900Z 29006KT 250V320 9999 FEW060 21/02 Q1028 NOSIG RMK BIRD HAZARD RWY 10/28 PP000=,2025-05-16 19:43:01.303609
SPZO,SPZO 161930Z VRB04KT 9999 FEW060 20/02 Q1028 NOSIG RMK BIRD HAZARD RWY 10/28=,2025-05-16 19:43:01.303609
SPQU,SPQU 161900Z 24007KT 190V290 CAVOK 18/03 Q1028 NOSIG RMK PP000=,2025-05-16 19:44:55.313065
SPRU,SPRU 161900Z 17009KT 4500 BR BKN004 19/17 Q1013 RMK PP000=,2025-05-16 19:44:55.313065
SPZO,SPZO 161900Z 29006KT 250V320 9999 FEW060 21/02 Q1028 NOSIG RMK BIRD HAZARD RWY 10/28 PP000=,2025-05-16 19:44:55.313065
SPZO,SPZO 161930Z VRB04KT 9999 FEW060 20/02 Q1028 NOSIG RMK BIRD HAZARD RWY 10/28=,2025-05-16 19:44:55.313065
SPQU,SPQU 161900Z 24007KT 190V290 CAVOK 18/03 Q1028 NOSIG RMK PP000=,2025-05-16 19:47:05.392543
SPRU,SPRU 161900Z 17009KT 4500 BR BKN004 19/17 Q1013 RMK PP000=,2025-05-16 19:47:05.392543
SPZO,SPZO 161900Z 29006KT 250V320 9999 FEW060 21/02 Q1028 NOSIG RMK BIRD HAZARD RWY 10/28 PP000=,2025-05-16 19:47:05.392543
SPZO,SPZO 161930Z VRB04KT 9999 FEW060 20/02 Q1028 NOSIG RMK BIRD HAZARD RWY 10/28=,2025-05-16 19:47:05.392543
SPQU,SPQU 162000Z 25008KT 210V290 CAVOK 18/03 Q1027 NOSIG RMK PP000=,2025-05-16 20:47:14.532108
SPRU,SPRU 162000Z 17008KT 6000 SCT015 19/17 Q1012 RMK HZ PP000=,2025-05-16 20:47:14.532108
SPRU,SPRU 162018Z 18008KT 4500 BR BKN010 19/17 Q1012=,2025-05-16 20:47:14.532108
SPZO,SPZO 162000Z VRB04KT 9999 FEW060 21/02 Q1027 NOSIG RMK BIRD HAZARD RWY 10/28 PP000=,2025-05-16 20:47:14.532108
SPZO,SPZO 162030Z 28010KT 240V330 9999 FEW060 21/03 Q1027 NOSIG RMK BIRD HAZARD RWY 10/28=,2025-05-16 20:47:14.532108
SPQU,SPQU 162100Z 27009KT 220V300 CAVOK 17/05 Q1027 NOSIG RMK PP000=,2025-05-16 21:08:07.742639
SPRU,SPRU 162100Z 17008KT 5000 BR BKN010 19/17 Q1012 RMK PP000=,2025-05-16 21:08:07.742639
SPZO,SPZO 162100Z 30009KT 260V350 9999 NSC 21/03 Q1027 NOSIG RMK BIRD HAZARD RWY 10/28 PP000=,2025-05-16 21:08:07.742639
SPHZ,160100Z 13008KT 3500 SCT012 BKN015 10/08 Q1026SPQU,SPQU 162100Z 27009KT 220V300 CAVOK 17/05 Q1027 NOSIG RMK PP000=
SPRU,SPRU 162100Z 17008KT 5000 BR BKN010 19/17 Q1012 RMK PP000=,2025-05-16 21:15:51.340709
SPZO,SPZO 162100Z 30009KT 260V350 9999 NSC 21/03 Q1027 NOSIG RMK BIRD HAZARD RWY 10/28 PP000=,2025-05-16 21:15:51.340709
SPQU,SPQU 162200Z 27011KT 230V290 CAVOK 15/06 Q1028 NOSIG RMK TX18.9 PP000=,2025-05-16 22:16:00.421335
SPRU,SPRU 162200Z 15008KT 4000 BR OVC003 19/17 Q1013 RMK TX20.1 PP000=,2025-05-16 22:16:00.421335
SPZO,SPZO 162200Z 31009KT 280V340 9999 NSC 20/01 Q1027 NOSIG RMK BIRD HAZARD RWY 10/28 TX21.8 PP000=,2025-05-16 22:16:00.421335
SPQU,SPQU 162300Z 27007KT CAVOK 14/06 Q1028 NOSIG RMK PP000=,2025-05-16 23:16:09.580028
SPRU,SPRU 162300Z 15011KT 4000 BR OVC003 18/17 Q1013 RMK PP000=,2025-05-16 23:16:09.580028
SPZO,SPZO 162300Z 30006KT 260V350 9999 NSC 16/01 Q1027 NOSIG RMK BIRD HAZARD RWY 10/28 PP000=,2025-05-16 23:16:09.580028
SPQU,SPQU 170000Z 29006KT CAVOK 13/06 Q1030 RMK PP000=,2025-05-17 00:16:19.627766
SPRU,SPRU 170000Z 14010KT 3000 BR OVC002 18/17 Q1014 RMK PP000=,2025-05-17 00:16:19.627766
SPZO,SPZO 170000Z 27006KT 9999 NSC 15/03 Q1028 NOSIG RMK BIRD HAZARD RWY 10/28 PP000=,2025-05-17 00:16:19.627766
SPQU,SPQU 170100Z 06007KT CAVOK 12/05 Q1030 RMK PP000=,2025-05-17 01:16:28.936003
SPRU,SPRU 170100Z 14010KT 3000 BR OVC002 18/17 Q1015 RMK PP000=,2025-05-17 01:16:28.936003
SPZO,SPZO 170100Z VRB02KT 9999 NSC 12/02 Q1030 NOSIG RMK BIRD HAZARD RWY 10/28 PP000=,2025-05-17 01:16:28.936003
SPQU,SPQU 170200Z 04005KT CAVOK 12/05 Q1030 RMK PP000=,2025-05-17 02:16:38.176218
SPRU,SPRU 170200Z 14009KT 3000 BR OVC002 18/17 Q1016 RMK PP000=,2025-05-17 02:16:38.176218
SPZO,SPZO 170200Z 07003KT 040V110 9999 NSC 10/02 Q1031 NOSIG RMK BIRD HAZARD RWY 10/28 PP000=,2025-05-17 02:16:38.176218
SPQU,SPQU 170300Z 02004KT 350V050 CAVOK 11/05 Q1030 RMK PP000=,2025-05-17 03:16:47.515747
SPRU,SPRU 170300Z 15009KT 2500 BR OVC002 18/17 Q1016 RMK PP000=,2025-05-17 03:16:47.515747
SPZO,SPZO 170300Z VRB01KT 9999 NSC 09/03 Q1032 NOSIG RMK BIRD HAZARD RWY 10/28 PP000=,2025-05-17 03:16:47.515747
SPQU,SPQU 170400Z 05006KT CAVOK 11/05 Q1030 RMK PP000=,2025-05-17 04:16:56.940215
SPRU,SPRU 170400Z 15008KT 3000 BR OVC003 18/17 Q1016 RMK PP000=,2025-05-17 04:16:56.940215
SPZO,SPZO 170400Z 10002KT 9999 NSC 08/03 Q1032 NOSIG RMK BIRD HAZARD RWY 10/28 PP000=,2025-05-17 04:16:56.940215
SPQU,SPQU 170500Z 34004KT CAVOK 11/04 Q1030 RMK PP000=,2025-05-17 05:10:04.445209
SPRU,SPRU 170500Z 16008KT 2500 BR BKN003 18/17 Q1016 RMK PP000=,2025-05-17 05:10:04.445209
SPZO,SPZO 170500Z VRB01KT 9999 NSC 07/03 Q1032 NOSIG RMK PP000=,2025-05-17 05:10:04.445209
SPQU,SPQU 170500Z 34004KT CAVOK 11/04 Q1030 RMK PP000=,2025-05-17 05:45:40.559842
SPRU,SPRU 170500Z 16008KT 2500 BR BKN003 18/17 Q1016 RMK PP000=,2025-05-17 05:45:40.559842
SPZO,SPZO 170500Z VRB01KT 9999 NSC 07/03 Q1032 NOSIG RMK PP000=,2025-05-17 05:45:40.559842
SPZO,SPZO 170530Z 00000KT 9999 NSC 07/03 Q1032 NOSIG=,2025-05-17 05:45:40.559842
SPQU,SPQU 170500Z 34004KT CAVOK 11/04 Q1030 RMK PP000=,2025-05-17 05:48:01.417507
SPRU,SPRU 170500Z 16008KT 2500 BR BKN003 18/17 Q1016 RMK PP000=,2025-05-17 05:48:01.417507
SPZO,SPZO 170500Z VRB01KT 9999 NSC 07/03 Q1032 NOSIG RMK PP000=,2025-05-17 05:48:01.417507
SPZO,SPZO 170530Z 00000KT 9999 NSC 07/03 Q1032 NOSIG=,2025-05-17 05:48:01.417507
SPQU,SPQU 180500Z 01004KT CAVOK 11/M01 Q1029 RMK PP000=,2025-05-18 05:10:44.591143
SPRU,SPRU 180500Z 16011KT 3000 BR OVC002 18/17 Q1015 RMK PP000=,2025-05-18 05:10:44.591143
SPZO,SPZO 180500Z 27005KT 240V300 9999 NSC 06/01 Q1032 NOSIG RMK PP000=,2025-05-18 05:10:44.591143
SPQU,SPQU 180600Z 02003KT CAVOK 09/M00 Q1028 RMK PP000=,2025-05-18 06:10:53.697305
SPRU,SPRU 180600Z 15008KT 3000 BR OVC002 18/17 Q1015 RMK PP000=,2025-05-18 06:10:53.697305
SPZO,SPZO 180600Z 30002KT 9999 NSC 08/02 Q1032 NOSIG RMK PP000=,2025-05-18 06:10:53.697305
SPQU,SPQU 060300Z 05004KT CAVOK 12/M02 Q1029 RMK PP000=,2025-06-06 03:58:54.945346
SPQU,SPQU 060400Z 02004KT CAVOK 10/M02 Q1029 RMK PP000=,2025-06-06 03:58:54.945346
SPRU,SPRU 060300Z 16007KT 5000 BR BKN010 19/17 Q1014 RMK PP000=,2025-06-06 03:58:54.945346
SPRU,SPRU 060400Z 15005KT 5000 BR BKN012 19/17 Q1014 RMK PP000=,2025-06-06 03:58:54.945346
SPZO,SPZO 060300Z 29003KT 9999 NSC 06/M00 Q1034 NOSIG RMK BIRD HAZARD RWY 10/28 PP000=,2025-06-06 03:58:54.945346
SPZO,SPZO 060330Z VRB01KT 9999 NSC 06/00 Q1034 NOSIG RMK BIRD HAZARD RWY 10/28=,2025-06-06 03:58:54.945346
SPZO,SPZO 060400Z VRB02KT 9999 NSC 06/01 Q1034 NOSIG RMK BIRD HAZARD RWY 10/28 PP000=,2025-06-06 03:58:54.945346
SPQU,SPQU 070300Z VRB02KT CAVOK 10/M07 Q1029 RMK PP000=,2025-06-07 03:03:47.765113
SPRU,SPRU 070300Z 14009KT 6000 BKN020 20/18 Q1014 RMK PP000=,2025-06-07 03:03:47.765113
SPZO,SPZO 070300Z VRB02KT 9999 NSC 07/02 Q1034 NOSIG RMK BIRD HAZARD RWY 10/28 PP000=,2025-06-07 03:03:47.765113
SPQU,SPQU 070400Z 04006KT CAVOK 12/M07 Q1029 RMK PP000=,2025-06-07 04:03:57.038121
SPRU,SPRU 070400Z 15009KT 6000 SCT020 19/18 Q1014 RMK PP000=,2025-06-07 04:03:57.038121
SPZO,SPZO 070400Z 28003KT 250V310 9999 NSC 06/01 Q1034 NOSIG RMK BIRD HAZARD RWY 10/28 PP000=,2025-06-07 04:03:57.038121
SPQU,SPQU 090000Z 03006KT CAVOK 14/M05 Q1027 RMK PP000=,2025-06-09 00:19:27.946394
SPRU,SPRU 090000Z 15007KT 5000 BR OVC018 19/17 Q1012 RMK PP000=,2025-06-09 00:19:27.946394
SPZO,SPZO 090000Z 29006KT 9999 NSC 13/03 Q1030 NOSIG RMK BIRD HAZARD RWY 10/28 PP000=,2025-06-09 00:19:27.946394
SPQU,SPQU 090000Z 03006KT CAVOK 14/M05 Q1027 RMK PP000=,2025-06-09 00:28:28.794324
SPRU,SPRU 090000Z 15007KT 5000 BR OVC018 19/17 Q1012 RMK PP000=,2025-06-09 00:28:28.794324
SPZO,SPZO 090000Z 29006KT 9999 NSC 13/03 Q1030 NOSIG RMK BIRD HAZARD RWY 10/28 PP000=,2025-06-09 00:28:28.794324
SPZO,SPZO 090030Z 27008KT 9999 NSC 12/03 Q1030 NOSIG RMK BIRD HAZARD RWY 10/28=,2025-06-09 00:28:28.794324
SPQU,SPQU 090200Z 01004KT CAVOK 12/M06 Q1027 RMK PP000=,2025-06-09 02:44:24.090287
SPRU,SPRU 090200Z 14006KT 4500 BR OVC016 19/17 Q1013 RMK PP000=,2025-06-09 02:44:24.090287
SPZO,SPZO 090200Z 27004KT 240V310 9999 NSC 11/03 Q1032 NOSIG RMK BIRD HAZARD RWY 10/28 PP000=,2025-06-09 02:44:24.090287
SPZO,SPZO 090230Z 25003KT 180V280 9999 NSC 09/03 Q1032 NOSIG RMK BIRD HAZARD RWY 10/28=,2025-06-09 02:44:24.090287
SPQU,SPQU 090200Z 01004KT CAVOK 12/M06 Q1027 RMK PP000=,2025-06-09 02:55:43.453252
SPRU,SPRU 090200Z 14006KT 4500 BR OVC016 19/17 Q1013 RMK PP000=,2025-06-09 02:55:43.453252
SPRU,SPRU 090300Z 15007KT 4500 BR OVC016 19/17 Q1013 RMK PP000=,2025-06-09 02:55:43.453252
SPZO,SPZO 090200Z 27004KT 240V310 9999 NSC 11/03 Q1032 NOSIG RMK BIRD HAZARD RWY 10/28 PP000=,2025-06-09 02:55:43.453252
SPZO,SPZO 090230Z 25003KT 180V280 9999 NSC 09/03 Q1032 NOSIG RMK BIRD HAZARD RWY 10/28=,2025-06-09 02:55:43.453252
SPZO,SPZO 090300Z 26003KT 230V290 9999 NSC 08/03 Q1033 NOSIG RMK BIRD HAZARD RWY 10/28 PP000=,2025-06-09 02:55:43.453252
SPQU,SPQU 090200Z 01004KT CAVOK 12/M06 Q1027 RMK PP000=,2025-06-09 03:02:25.802520
SPQU,SPQU 090300Z 05007KT CAVOK 13/M06 Q1027 RMK PP000=,2025-06-09 03:02:25.802520
SPRU,SPRU 090200Z 14006KT 4500 BR OVC016 19/17 Q1013 RMK PP000=,2025-06-09 03:02:25.802520
SPRU,SPRU 090300Z 15007KT 4500 BR OVC016 19/17 Q1013 RMK PP000=,2025-06-09 03:02:25.802520
SPZO,SPZO 090200Z 27004KT 240V310 9999 NSC 11/03 Q1032 NOSIG RMK BIRD HAZARD RWY 10/28 PP000=,2025-06-09 03:02:25.802520
SPZO,SPZO 090230Z 25003KT 180V280 9999 NSC 09/03 Q1032 NOSIG RMK BIRD HAZARD RWY 10/28=,2025-06-09 03:02:25.802520
SPZO,SPZO 090300Z 26003KT 230V290 9999 NSC 08/03 Q1033 NOSIG RMK BIRD HAZARD RWY 10/28 PP000=,2025-06-09 03:02:25.802520
SPQU,SPQU 090300Z 05007KT CAVOK 13/M06 Q1027 RMK PP000=,2025-06-09 03:06:52.194029
SPRU,SPRU 090300Z 15007KT 4500 BR OVC016 19/17 Q1013 RMK PP000=,2025-06-09 03:06:52.194029
SPZO,SPZO 090300Z 26003KT 230V290 9999 NSC 08/03 Q1033 NOSIG RMK BIRD HAZARD RWY 10/28 PP000=,2025-06-09 03:06:52.194029
SPQU,SPQU 090400Z 06008KT CAVOK 11/M08 Q1027 RMK PP000=,2025-06-09 04:07:10.533328
SPRU,SPRU 090400Z 15008KT 4500 BR SCT018 19/17 Q1013 RMK PP000=,2025-06-09 04:07:10.533328
SPZO,SPZO 090400Z 28003KT 9999 NSC 07/03 Q1033 NOSIG RMK BIRD HAZARD RWY 10/28 PP000=,2025-06-09 04:07:10.533328
SPQU,SPQU 090500Z 02005KT CAVOK 13/M09 Q1027 RMK PP000=,2025-06-09 05:07:28.949362
SPRU,SPRU 090500Z 15006KT 4000 BR FEW016 19/17 Q1013 RMK PP000=,2025-06-09 05:07:28.949362
SPZO,SPZO 090500Z 26003KT 230V290 9999 NSC 07/03 Q1033 NOSIG RMK BIRD HAZARD RWY 10/28 PP000=,2025-06-09 05:07:28.949362
SPQU,SPQU 120200Z 01005KT CAVOK 12/M06 Q1031 RMK PP000=,2025-06-12 02:24:32.500320
SPRU,SPRU 120200Z 15008KT 5000 BR BKN150 20/18 Q1015 RMK PP000=,2025-06-12 02:24:32.500320
SPZO,SPZO 120200Z VRB02KT 9999 NSC 10/04 Q1032 NOSIG RMK BIRD HAZARD RWY 10/28 PP000=,2025-06-12 02:24:32.500320
SPQU,SPQU 120200Z 01005KT CAVOK 12/M06 Q1031 RMK PP000=,2025-06-12 02:26:06.985936
SPRU,SPRU 120200Z 15008KT 5000 BR BKN150 20/18 Q1015 RMK PP000=,2025-06-12 02:26:06.985936
SPZO,SPZO 120200Z VRB02KT 9999 NSC 10/04 Q1032 NOSIG RMK BIRD HAZARD RWY 10/28 PP000=,2025-06-12 02:26:06.985936
SPQU,SPQU 120200Z 01005KT CAVOK 12/M06 Q1031 RMK PP000=,2025-06-12 02:32:01.472175
SPRU,SPRU 120200Z 15008KT 5000 BR BKN150 20/18 Q1015 RMK PP000=,2025-06-12 02:32:01.472175
SPZO,SPZO 120200Z VRB02KT 9999 NSC 10/04 Q1032 NOSIG RMK BIRD HAZARD RWY 10/28 PP000=,2025-06-12 02:32:01.472175
SPZO,SPZO 120230Z VRB02KT 9999 NSC 10/04 Q1033 NOSIG RMK BIRD HAZARD RWY 10/28=,2025-06-12 02:32:01.472175
SPQU,SPQU 120300Z VRB05KT CAVOK 14/M05 Q1031 RMK PP000=,2025-06-12 03:22:09.954368
SPRU,SPRU 120300Z 14006KT 110V170 5000 BR FEW100 20/18 Q1016 RMK PP000=,2025-06-12 03:22:09.954368
SPZO,SPZO 120300Z 29004KT 9999 NSC 07/03 Q1033 NOSIG RMK BIRD HAZARD RWY 10/28 PP000=,2025-06-12 03:22:09.954368
SPQU,SPQU 120300Z VRB05KT CAVOK 14/M05 Q1031 RMK PP000=,2025-06-12 03:33:51.041617
SPRU,SPRU 120300Z 14006KT 110V170 5000 BR FEW100 20/18 Q1016 RMK PP000=,2025-06-12 03:33:51.041617
SPZO,SPZO 120300Z 29004KT 9999 NSC 07/03 Q1033 NOSIG RMK BIRD HAZARD RWY 10/28 PP000=,2025-06-12 03:33:51.041617
SPZO,SPZO 120330Z 28004KT 260V320 9999 NSC 07/03 Q1033 NOSIG RMK BIRD HAZARD RWY 10/28=,2025-06-12 03:33:51.041617
SPQU,SPQU 120400Z 04005KT CAVOK 09/M05 Q1030 RMK PP000=,2025-06-12 04:34:10.098613
SPRU,SPRU 120400Z 15005KT 5000 BR NSC 20/18 Q1016 RMK PP000=,2025-06-12 04:34:10.098613
SPZO,SPZO 120400Z 08003KT 010V100 9999 NSC 07/03 Q1033 NOSIG RMK PP000=,2025-06-12 04:34:10.098613
SPZO,SPZO 120430Z 07003KT 020V130 9999 NSC 06/03 Q1033 NOSIG=,2025-06-12 04:34:10.098613
SPQU,SPQU 120500Z 03006KT CAVOK 09/M06 Q1030 RMK PP000=,2025-06-12 05:25:57.918649
SPRU,SPRU 120500Z 13005KT 3500 BR NSC 20/18 Q1016 RMK PP000=,2025-06-12 05:25:57.918649
SPZO,SPZO 120500Z VRB02KT 9999 NSC 06/03 Q1033 NOSIG=,2025-06-12 05:25:57.918649
SPQU,SPQU 120500Z 03006KT CAVOK 09/M06 Q1030 RMK PP000=,2025-06-12 05:31:36.539716
SPRU,SPRU 120500Z 13005KT 3500 BR NSC 20/18 Q1016 RMK PP000=,2025-06-12 05:31:36.539716
SPZO,SPZO 120500Z VRB02KT 9999 NSC 06/03 Q1033 NOSIG=,2025-06-12 05:31:36.539716
SPQU,SPQU 120500Z 03006KT CAVOK 09/M06 Q1030 RMK PP000=,2025-06-12 05:35:06.811583
SPRU,SPRU 120500Z 13005KT 3500 BR NSC 20/18 Q1016 RMK PP000=,2025-06-12 05:35:06.811583
SPZO,SPZO 120500Z VRB02KT 9999 NSC 06/03 Q1033 NOSIG=,2025-06-12 05:35:06.811583
SPQU,SPQU 120600Z 06008KT CAVOK 10/M04 Q1029 RMK PP000=,2025-06-12 06:35:25.829776
SPRU,SPRU 120600Z 13005KT 3500 BR NSC 20/18 Q1015 RMK PP000=,2025-06-12 06:35:25.829776
SPZO,SPZO 120600Z 27004KT 9999 NSC 06/03 Q1033 NOSIG RMK PP000=,2025-06-12 06:35:25.829776
SPQU,SPQU 120700Z 06011KT CAVOK 10/M04 Q1029 RMK PP000=,2025-06-12 07:35:45.644266
SPRU,SPRU 120700Z 14005KT 3500 BR NSC 20/19 Q1015 RMK PP000=,2025-06-12 07:35:45.644266
SPZO,SPZO 120700Z VRB01KT 9999 NSC 05/03 Q1033 NOSIG RMK PP000=,2025-06-12 07:35:45.644266
SPQU,SPQU 120800Z 06010KT CAVOK 10/M05 Q1028 RMK PP000=,2025-06-12 08:36:05.688096
SPRU,SPRU 120800Z 13004KT 3500 BR NSC 20/19 Q1015 RMK PP000=,2025-06-12 08:36:05.688096
SPZO,SPZO 120800Z VRB01KT 9999 NSC 04/01 Q1032 NOSIG RMK PP000=,2025-06-12 08:36:05.688096
SPQU,SPQU 120900Z 06011KT CAVOK 10/M05 Q1028 RMK PP000=,2025-06-12 09:36:25.452251
SPRU,SPRU 120900Z 12004KT 3500 BR NSC 20/19 Q1015 RMK PP000=,2025-06-12 09:36:25.452251
SPZO,SPZO 120900Z 29002KT 9999 NSC 02/01 Q1032 NOSIG RMK PP000=,2025-06-12 09:36:25.452251
SPQU,SPQU 121000Z 06011KT CAVOK 11/M05 Q1028 RMK PP000=,2025-06-12 10:36:45.072375
SPRU,SPRU 121000Z 15006KT 3500 BR NSC 20/18 Q1015 RMK PP000=,2025-06-12 10:36:45.072375
SPZO,SPZO 121000Z VRB01KT 9999 NSC 03/02 Q1033 NOSIG RMK PP000=,2025-06-12 10:36:45.072375
SPZO,SPZO 121030Z 00000KT 9999 FEW040 03/02 Q1033 NOSIG RMK BIRD HAZARD RWY 10/28=,2025-06-12 10:36:45.072375
SPQU,SPQU 121100Z 06012KT CAVOK 11/M05 Q1028 RMK PP000=,2025-06-12 11:36:59.455090
SPRU,SPRU 121100Z 15006KT 3500 BR NSC 20/18 Q1015 RMK PP000=,2025-06-12 11:36:59.455090
SPZO,SPZO 121100Z 27003KT 9999 SCT020 BKN060 03/02 Q1033 NOSIG RMK BIRD HAZARD RWY 10/28 PP000=,2025-06-12 11:36:59.455090
SPZO,SPZO 121130Z 07003KT 040V100 9999 SCT025 BKN070 05/03 Q1034 NOSIG RMK BIRD HAZARD RWY 10/28=,2025-06-12 11:36:59.455090
SPQU,SPQU 121200Z 06011KT CAVOK 11/M05 Q1028 NOSIG RMK TN8.4 PP000=,2025-06-12 12:37:19.722212
SPRU,SPRU 121200Z 14006KT 3500 BR FEW009 OVC090 20/18 Q1016 RMK TN19.3 PP000=,2025-06-12 12:37:19.722212
SPZO,SPZO 121200Z 08003KT 9999 SCT033 BKN070 06/04 Q1034 NOSIG RMK BIRD HAZARD RWY 10/28 TN2.3 PP000=,2025-06-12 12:37:19.722212
SPZO,SPZO 121230Z 07003KT 020V100 9999 SCT036 BKN070 07/04 Q1034 NOSIG RMK BIRD HAZARD RWY 10/28=,2025-06-12 12:37:19.722212
SPQU,SPQU 130000Z VRB02KT CAVOK 12/02 Q1028 NOSIG RMK PP000=,2025-06-13 00:54:28.080404
SPRU,SPRU 130000Z 14007KT 6000 SCT008 20/18 Q1014 RMK PP000=,2025-06-13 00:54:28.080404
SPZO,SPZO 130000Z 30005KT 260V350 9999 NSC 14/M02 Q1028 NOSIG RMK BIRD HAZARD RWY 10/28 PP000=,2025-06-13 00:54:28.080404
SPZO,SPZO 130030Z 29006KT 9999 NSC 12/M02 Q1029 NOSIG RMK BIRD HAZARD RWY 10/28=,2025-06-13 00:54:28.080404
SPQU,SPQU 130100Z 36004KT CAVOK 12/M01 Q1028 NOSIG RMK PP000=,2025-06-13 01:03:27.150818
SPRU,SPRU 130100Z 16006KT 130V200 5000 BR SCT007 20/18 Q1014 RMK PP000=,2025-06-13 01:03:27.150818
SPZO,SPZO 130100Z 29005KT 9999 NSC 10/M02 Q1029 NOSIG RMK BIRD HAZARD RWY 10/28 PP000=,2025-06-13 01:03:27.150818
SPQU,SPQU 130200Z 35004KT 300V010 CAVOK 11/M03 Q1028 NOSIG RMK PP000=,2025-06-13 02:03:46.267432
SPRU,SPRU 130200Z 14009KT 4000 BR SCT007 20/18 Q1015 RMK PP000=,2025-06-13 02:03:46.267432
SPZO,SPZO 130200Z 28005KT 9999 NSC 08/M03 Q1029 NOSIG RMK BIRD HAZARD RWY 10/28 PP000=,2025-06-13 02:03:46.267432
SPQU,SPQU 130300Z VRB02KT CAVOK 08/M03 Q1028 NOSIG RMK PP000=,2025-06-13 03:04:06.031209
SPRU,SPRU 130300Z 18006KT 4000 BR SCT007 20/18 Q1015 RMK PP000=,2025-06-13 03:04:06.031209
SPZO,SPZO 130300Z 00000KT 9999 NSC 08/M02 Q1030 NOSIG RMK BIRD HAZARD RWY 10/28 PP000=,2025-06-13 03:04:06.031209
SPQU,SPQU 130300Z VRB02KT CAVOK 08/M03 Q1028 NOSIG RMK PP000=,2025-06-13 04:01:10.541224
SPQU,SPQU 130400Z 36005KT CAVOK 09/M03 Q1028 RMK PP000=,2025-06-13 04:01:10.541224
SPRU,SPRU 130300Z 18006KT 4000 BR SCT007 20/18 Q1015 RMK PP000=,2025-06-13 04:01:10.541224
SPRU,SPRU 130400Z 17004KT 4000 BR SCT007 20/18 Q1016 RMK PP000=,2025-06-13 04:01:10.541224
SPZO,SPZO 130300Z 00000KT 9999 NSC 08/M02 Q1030 NOSIG RMK BIRD HAZARD RWY 10/28 PP000=,2025-06-13 04:01:10.541224
SPZO,SPZO 130330Z VRB02KT 9999 NSC 07/M02 Q1030 NOSIG RMK BIRD HAZARD RWY 10/28=,2025-06-13 04:01:10.541224
SPZO,SPZO 130400Z VRB02KT 9999 NSC 06/M01 Q1030 NOSIG RMK BIRD HAZARD RWY 10/28 PP000=,2025-06-13 04:01:10.541224
SPQU,SPQU 130400Z 36005KT CAVOK 09/M03 Q1028 RMK PP000=,2025-06-13 05:01:29.872074
SPQU,SPQU 130500Z 01004KT CAVOK 09/M03 Q1028 RMK PP000=,2025-06-13 05:01:29.872074
SPRU,SPRU 130400Z 17004KT 4000 BR SCT007 20/18 Q1016 RMK PP000=,2025-06-13 05:01:29.872074
SPRU,SPRU 130500Z 16006KT 3000 BR NSC 19/18 Q1016 RMK PP000=,2025-06-13 05:01:29.872074
SPZO,SPZO 130400Z VRB02KT 9999 NSC 06/M01 Q1030 NOSIG RMK BIRD HAZARD RWY 10/28 PP000=,2025-06-13 05:01:29.872074
SPZO,SPZO 130430Z 27004KT 230V290 9999 NSC 06/M01 Q1030 NOSIG RMK BIRD HAZARD RWY 10/28=,2025-06-13 05:01:29.872074
SPZO,SPZO 130500Z VRB01KT 9999 NSC 04/M00 Q1030 NOSIG RMK BIRD HAZARD RWY 10/28 PP000=,2025-06-13 05:01:29.872074
SPQU,SPQU 142300Z 26002KT CAVOK 14/01 Q1028 NOSIG RMK PP000=,2025-06-14 23:55:20.878890
SPRU,SPRU 142300Z 15007KT 7000 FEW006 BKN020 20/18 Q1015 RMK PP000=,2025-06-14 23:55:20.878890
SPRU,SPRU 150000Z 15006KT 7000 BKN020 20/18 Q1015 RMK PP000=,2025-06-14 23:55:20.878890
SPZO,SPZO 142300Z 29009KT 9999 NSC 14/M08 Q1030 NOSIG RMK BIRD HAZARD RWY 10/28 PP000=,2025-06-14 23:55:20.878890
SPZO,SPZO 142330Z 28008KT 9999 NSC 13/M06 Q1031 NOSIG RMK BIRD HAZARD RWY 10/28=,2025-06-14 23:55:20.878890
SPQU,SPQU 150000Z VRB01KT CAVOK 11/M03 Q1029 RMK PP000=,2025-06-15 00:55:43.474978
SPRU,SPRU 150000Z 15006KT 7000 BKN020 20/18 Q1015 RMK PP000=,2025-06-15 00:55:43.474978
SPZO,SPZO 150000Z 27007KT 250V320 9999 NSC 11/M06 Q1031 NOSIG RMK BIRD HAZARD RWY 10/28 PP000=,2025-06-15 00:55:43.474978
SPZO,SPZO 150030Z 26005KT 230V320 9999 NSC 12/M05 Q1032 NOSIG RMK BIRD HAZARD RWY 10/28=,2025-06-15 00:55:43.474978
SPQU,SPQU 150100Z 02004KT CAVOK 12/M08 Q1029 RMK PP000=,2025-06-15 01:14:19.842999
SPRU,SPRU 150100Z 15006KT 6000 FEW009 BKN020 20/18 Q1016 RMK PP000=,2025-06-15 01:14:19.842999
SPZO,SPZO 150100Z 26006KT 9999 NSC 10/M04 Q1032 NOSIG RMK BIRD HAZARD RWY 10/28 PP000=,2025-06-15 01:14:19.842999
SPQU,SPQU 150100Z 02004KT CAVOK 12/M08 Q1029 RMK PP000=,2025-06-15 01:25:17.667977
SPRU,SPRU 150100Z 15006KT 6000 FEW009 BKN020 20/18 Q1016 RMK PP000=,2025-06-15 01:25:17.667977
SPZO,SPZO 150100Z 26006KT 9999 NSC 10/M04 Q1032 NOSIG RMK BIRD HAZARD RWY 10/28 PP000=,2025-06-15 01:25:17.667977
SPQU,SPQU 150100Z 02004KT CAVOK 12/M08 Q1029 RMK PP000=,2025-06-15 01:27:45.403844
SPRU,SPRU 150100Z 15006KT 6000 FEW009 BKN020 20/18 Q1016 RMK PP000=,2025-06-15 01:27:45.403844
SPZO,SPZO 150100Z 26006KT 9999 NSC 10/M04 Q1032 NOSIG RMK BIRD HAZARD RWY 10/28 PP000=,2025-06-15 01:27:45.403844
SPZO,SPZO 150130Z 09005KT 9999 NSC 08/M05 Q1033 NOSIG RMK BIRD HAZARD RWY 10/28=,2025-06-15 01:27:45.403844
SPQU,SPQU 150200Z 36005KT CAVOK 10/M12 Q1029 RMK PP000=,2025-06-15 02:28:04.671616
SPRU,SPRU 150200Z 17004KT 5000 BR BKN008 20/18 Q1017 RMK PP000=,2025-06-15 02:28:04.671616
SPZO,SPZO 150200Z VRB02KT 9999 NSC 08/M05 Q1033 NOSIG RMK BIRD HAZARD RWY 10/28 PP000=,2025-06-15 02:28:04.671616
SPZO,SPZO 150230Z VRB01KT 9999 NSC 07/M02 Q1034 NOSIG RMK BIRD HAZARD RWY 10/28=,2025-06-15 02:28:04.671616
SPQU,SPQU 150300Z 04005KT CAVOK 10/M15 Q1029 RMK PP000=,2025-06-15 03:28:24.156857
SPRU,SPRU 150300Z 16005KT 5000 BR BKN010 20/18 Q1017 RMK PP000=,2025-06-15 03:28:24.156857
SPZO,SPZO 150300Z 27004KT 9999 NSC 07/M01 Q1034 NOSIG RMK BIRD HAZARD RWY 10/28 PP000=,2025-06-15 03:28:24.156857
SPZO,SPZO 150330Z 29003KT 9999 NSC 05/M01 Q1034 NOSIG RMK BIRD HAZARD RWY 10/28=,2025-06-15 03:28:24.156857
